*******************************************************************************
 Revised: April 12, 2021               Jupiter                              599
 
 PHYSICAL DATA (revised 2025-Jan-30):
  Mass x 10^26 (kg)     = 18.9819           Density (g/cm^3)  = 1.3262 +- .0003
  Equat. radius (1 bar) = 71492+-4 km       Polar radius (km)     = 66854+-10
  Vol. Mean Radius (km) = 69911+-6          Flattening            = 0.06487
  Geometric Albedo      = 0.52              Rocky core mass (Mc/M)= 0.0261
  Sid. rot. period (III)= 9h 55m 29.711 s   Sid. rot. rate (rad/s)= 0.00017585
  Mean solar day, hrs   = ~9.9259         
  GM (km^3/s^2)         = 126686531.900     GM 1-sigma (km^3/s^2) =  +- 1.2732
  Equ. grav, ge (m/s^2) = 24.79             Pol. grav, gp (m/s^2) =  28.34
  Vis. magnitude V(1,0) = -9.40
  Vis. mag. (opposition)= -2.70             Obliquity to orbit    =  3.13 deg
  Sidereal orbit period = 11.861982204 y    Sidereal orbit period = 4332.589 d
  Mean daily motion     = 0.0831294 deg/d   Mean orbit speed, km/s= 13.0697
  Atmos. temp. (1 bar)  = 165+-5 K          Escape speed, km/s    =  59.5           
  A_roche(ice)/Rp       =  2.76             Hill's sphere rad. Rp = 740
                                 Perihelion   Aphelion     Mean
  Solar Constant (W/m^2)         56           46           51
  Maximum Planetary IR (W/m^2)   13.7         13.4         13.6
  Minimum Planetary IR (W/m^2)   13.7         13.4         13.6
*******************************************************************************


*******************************************************************************
Ephemeris / WWW_USER Sat May 10 16:01:49 2025 Pasadena, USA      / Horizons
*******************************************************************************
Target body name: Jupiter (599)                   {source: jup365_merged}
Center body name: Solar System Barycenter (0)     {source: DE441}
Center-site name: BODY CENTER
*******************************************************************************
Start time      : A.D. 2005-May-01 00:00:00.0000 TDB
Stop  time      : A.D. 2025-Jun-09 00:00:00.0000 TDB
Step-size       : 1 calendar months
*******************************************************************************
Center geodetic : 0.0, 0.0, 0.0                   {E-lon(deg),Lat(deg),Alt(km)}
Center cylindric: 0.0, 0.0, 0.0                   {E-lon(deg),Dxy(km),Dz(km)}
Center radii    : (undefined)
Output units    : KM-S
Calendar mode   : Mixed Julian/Gregorian
Output type     : GEOMETRIC cartesian states
Output format   : 3 (position, velocity, LT, range, range-rate)
Reference frame : Ecliptic of J2000.0
*******************************************************************************
JDTDB
   X     Y     Z
   VX    VY    VZ
   LT    RG    RR
*******************************************************************************
$$SOE
2457143.500000000 = A.D. 2015-May-01 00:00:00.0000 TDB 
 X =-6.474795407584363E+08 Y = 4.713656589629808E+08 Z = 1.251940798153445E+07
 VX=-7.844305308100547E+00 VY=-9.947984099732508E+00 VZ= 2.168570776788425E-01
 LT= 2.671788176520743E+03 RG= 8.009819446944910E+08 RR= 4.901534207654687E-01
2457174.500000000 = A.D. 2015-Jun-01 00:00:00.0000 TDB 
 X =-6.678847476529837E+08 Y = 4.442938528148531E+08 Z = 1.308849641547275E+07
 VX=-7.390385829539854E+00 VY=-1.026307100994920E+01 VZ= 2.080446646617617E-01
 LT= 2.676087202015843E+03 RG= 8.022707601146722E+08 RR= 4.721967006390624E-01
2457204.500000000 = A.D. 2015-Jul-01 00:00:00.0000 TDB 
 X =-6.864609247894106E+08 Y = 4.173159985479596E+08 Z = 1.361625785177755E+07
 VX=-6.940566637192941E+00 VY=-1.054938845576752E+01 VZ= 1.991592021919524E-01
 LT= 2.680092844075150E+03 RG= 8.034716213934997E+08 RR= 4.539189788173474E-01
2457235.500000000 = A.D. 2015-Aug-01 00:00:00.0000 TDB 
 X =-7.044176913356960E+08 Y = 3.886870793382903E+08 Z = 1.413701484844804E+07
 VX=-6.465848140715929E+00 VY=-1.082531628809375E+01 VZ= 1.896295851289862E-01
 LT= 2.684065282440476E+03 RG= 8.046625284552945E+08 RR= 4.345648427420651E-01
2457266.500000000 = A.D. 2015-Sep-01 00:00:00.0000 TDB 
 X =-7.210882843265462E+08 Y = 3.593491043403727E+08 Z = 1.463194674098991E+07
 VX=-5.979775651257106E+00 VY=-1.107964169994682E+01 VZ= 1.798565823872891E-01
 LT= 2.687860610129388E+03 RG= 8.058003390720688E+08 RR= 4.134007886527123E-01
2457296.500000000 = A.D. 2015-Oct-01 00:00:00.0000 TDB 
 X =-7.359732884927217E+08 Y = 3.303356745743485E+08 Z = 1.508558456910650E+07
 VX=-5.502954772368841E+00 VY=-1.130509156600159E+01 VZ= 1.701120537116343E-01
 LT= 2.691359817734151E+03 RG= 8.068493751209531E+08 RR= 3.942729848330133E-01
2457327.500000000 = A.D. 2015-Nov-01 00:00:00.0000 TDB 
 X =-7.500432481853644E+08 Y = 2.997677276871085E+08 Z = 1.552744007864559E+07
 VX=-5.003539230074329E+00 VY=-1.151717610811948E+01 VZ= 1.597510212819246E-01
 LT= 2.694790534768465E+03 RG= 8.078778782133723E+08 RR= 3.749002637934346E-01
2457357.500000000 = A.D. 2015-Dec-01 00:00:00.0000 TDB 
 X =-7.623713821902273E+08 Y = 2.696706240923756E+08 Z = 1.592835288818154E+07
 VX=-4.509531106276921E+00 VY=-1.170166693769541E+01 VZ= 1.495593667472619E-01
 LT= 2.697925464404253E+03 RG= 8.088177064745425E+08 RR= 3.520247746863193E-01
2457388.500000000 = A.D. 2016-Jan-01 00:00:00.0000 TDB 
 X =-7.737621724872415E+08 Y = 2.380946394201870E+08 Z = 1.631443878994060E+07
 VX=-3.993473293708271E+00 VY=-1.187237321291944E+01 VZ= 1.387398365763195E-01
 LT= 2.700969464431157E+03 RG= 8.097302747247601E+08 RR= 3.279037763276834E-01
2457419.500000000 = A.D. 2016-Feb-01 00:00:00.0000 TDB 
 X =-7.837671160984857E+08 Y = 2.060930410638012E+08 Z = 1.667129252971764E+07
 VX=-3.476018499800638E+00 VY=-1.201962919595236E+01 VZ= 1.277120498627404E-01
 LT= 2.703810487643636E+03 RG= 8.105819920568641E+08 RR= 3.076261118887473E-01
2457448.500000000 = A.D. 2016-Mar-01 00:00:00.0000 TDB 
 X =-7.918599941931205E+08 Y = 1.758222627364588E+08 Z = 1.697816406038734E+07
 VX=-2.985237878107356E+00 VY=-1.214067480892500E+01 VZ= 1.171443767679419E-01
 LT= 2.706280098928164E+03 RG= 8.113223628941573E+08 RR= 2.850635453865142E-01
2457479.500000000 = A.D. 2016-Apr-01 00:00:00.0000 TDB 
 X =-7.991461003803200E+08 Y = 1.431625028908183E+08 Z = 1.727691251517123E+07
 VX=-2.456327188731497E+00 VY=-1.224480419753665E+01 VZ= 1.058272080610418E-01
 LT= 2.708713974092637E+03 RG= 8.120520203121798E+08 RR= 2.608156126987526E-01
2457509.500000000 = A.D. 2016-May-01 00:00:00.0000 TDB 
 X =-8.048459879245714E+08 Y = 1.113141314056394E+08 Z = 1.753679952132268E+07
 VX=-1.940863835817117E+00 VY=-1.232496310984152E+01 VZ= 9.472387130578941E-02
 LT= 2.710863395201318E+03 RG= 8.126964005496286E+08 RR= 2.360230236014241E-01
2457540.500000000 = A.D. 2016-Jun-01 00:00:00.0000 TDB 
 X =-8.093332760034248E+08 Y = 7.821155322781006E+07 Z = 1.777476852597525E+07
 VX=-1.409264786270994E+00 VY=-1.238845816202305E+01 VZ= 8.298652903520320E-02
 LT= 2.712869508569779E+03 RG= 8.132978182073859E+08 RR= 2.128610132083702E-01
2457570.500000000 = A.D. 2016-Jul-01 00:00:00.0000 TDB 
 X =-8.123140915720593E+08 Y = 4.604502108338070E+07 Z = 1.797512688612387E+07
 VX=-8.914977343261113E-01 VY=-1.242867609237986E+01 VZ= 7.155464375559983E-02
 LT= 2.714599925250848E+03 RG= 8.138165840775679E+08 RR= 1.882288052165345E-01
2457601.500000000 = A.D. 2016-Aug-01 00:00:00.0000 TDB 
 X =-8.139844212704055E+08 Y = 1.272756973009233E+07 Z = 1.815094575823925E+07
 VX=-3.546958631831200E-01 VY=-1.244738658797758E+01 VZ= 5.969083964828759E-02
 LT= 2.716166539595045E+03 RG= 8.142862432425529E+08 RR= 1.613380705460414E-01
2457632.500000000 = A.D. 2016-Sep-01 00:00:00.0000 TDB 
 X =-8.142213013618867E+08 Y =-2.061136813587944E+07 Z = 1.829479849247697E+07
 VX= 1.786923683433156E-01 VY=-1.244471993284713E+01 VZ= 4.768732036133461E-02
 LT= 2.717505260514718E+03 RG= 8.146875816776377E+08 RR= 1.373287179291061E-01
2457662.500000000 = A.D. 2016-Oct-01 00:00:00.0000 TDB 
 X =-8.130875414233260E+08 Y =-5.284032788354684E+07 Z = 1.840336960648900E+07
 VX= 6.945240633361475E-01 VY=-1.242096622853140E+01 VZ= 3.602584248565677E-02
 LT= 2.718582439326668E+03 RG= 8.150105117613776E+08 RR= 1.132280634319010E-01
2457693.500000000 = A.D. 2016-Nov-01 00:00:00.0000 TDB 
 X =-8.105114027509781E+08 Y =-8.605125525159676E+07 Z = 1.848373725055431E+07
 VX= 1.227411118604857E+00 VY=-1.237489768011999E+01 VZ= 2.394352729171967E-02
 LT= 2.719468513735027E+03 RG= 8.152761501862305E+08 RR= 8.645823546173731E-02
2457723.500000000 = A.D. 2016-Dec-01 00:00:00.0000 TDB 
 X =-8.066644626966807E+08 Y =-1.180472102502618E+08 Z = 1.853062217140623E+07
 VX= 1.741542294140692E+00 VY=-1.230873536522115E+01 VZ= 1.228284175592353E-02
 LT= 2.720104414777433E+03 RG= 8.154667885227780E+08 RR= 5.935152968521615E-02
2457754.500000000 = A.D. 2017-Jan-01 00:00:00.0000 TDB 
 X =-8.012983779832726E+08 Y =-1.509045528216324E+08 Z = 1.854710240352888E+07
 VX= 2.266627915224318E+00 VY=-1.222160272281614E+01 VZ= 8.962974856530082E-05
 LT= 2.720532216384762E+03 RG= 8.155950402181755E+08 RR= 3.439437794273840E-02
2457785.500000000 = A.D. 2017-Feb-01 00:00:00.0000 TDB 
 X =-7.945286758498245E+08 Y =-1.834967442090222E+08 Z = 1.853107232088377E+07
 VX= 2.787795020809946E+00 VY=-1.211221894500216E+01 VZ=-1.206849836007962E-02
 LT= 2.720726482056114E+03 RG= 8.156532796012952E+08 RR= 9.006293602533544E-03
2457813.500000000 = A.D. 2017-Mar-01 00:00:00.0000 TDB 
 X =-7.872174289819838E+08 Y =-2.126594429689951E+08 Z = 1.848868626296735E+07
 VX= 3.254566979928339E+00 VY=-1.199479132156347E+01 VZ=-2.300665020320913E-02
 LT= 2.720699650850465E+03 RG= 8.156452358082026E+08 RR=-1.430961849709810E-02
2457844.500000000 = A.D. 2017-Apr-01 00:00:00.0000 TDB 
 X =-7.778113020567648E+08 Y =-2.445901485889693E+08 Z = 1.841092030443844E+07
 VX= 3.766594136827122E+00 VY=-1.184537231422578E+01 VZ=-3.509394475058603E-02
 LT= 2.720447258662082E+03 RG= 8.155695705336672E+08 RR=-4.056579410516319E-02
